OBJECT_NAME,OBJECT_ID,EPOCH,MEAN_MOTION,ECCENTRICITY,INCLINATION,RA_OF_ASC_NODE,ARG_OF_PERICENTER,MEAN_ANOMALY,EPHEMERIS_TYPE,CLASSIFICATION_TYPE,NORAD_CAT_ID,ELEMENT_SET_NO,REV_AT_EPOCH,BSTAR,MEAN_MOTION_DOT,MEAN_MOTION_DDOT
SCD 1,1993-009B,2026-06-10T12:47:42.940032,14.46116538,.0042165,24.9686,248.6632,67.7017,319.2318,0,U,22490,999,76015,.47133E-4,.358E-5,0
TECHSAT 1B (GO-32),1998-043D,2026-06-09T23:16:34.532832,14.24427022,.00006434,99.0065,153.5465,181.5466,178.5710,0,U,25397,999,45030,.45251412E-4,.58E-6,0
SCD 2,1998-060A,2026-06-10T04:30:32.617728,14.45523077,.00169097,24.9942,115.3218,49.9238,346.0190,0,U,25504,999,45931,.52842159E-4,.371E-5,0
DLR-TUBSAT,1999-029B,2026-06-10T06:23:56.416416,14.52425074,.00144948,98.6694,156.5430,16.0558,344.1093,0,U,25757,999,43224,.32175328E-4,.83E-6,0
TERRA,1999-068A,2026-06-10T10:37:02.158176,14.61097651,.000108,97.9459,211.2558,219.0291,197.8052,0,U,25994,999,40862,.72614E-4,.313E-5,0
MAROC-TUBSAT,2001-056D,2026-06-10T12:06:57.680064,13.70262181,.0020123,99.8079,338.2386,158.0441,269.4240,0,U,27004,999,22527,.36108E-4,-.15E-6,0
AQUA,2002-022A,2026-06-10T11:50:50.667936,14.62147849,.0001374,98.4274,130.6429,53.4071,55.1749,0,U,27424,999,28229,.14045E-3,.657E-5,0
SHIYAN-1 (SY-1),2004-012A,2026-06-10T11:07:21.781920,15.33589617,.0006153,97.8692,239.0956,54.6080,305.5735,0,U,28220,999,21006,.3941E-3,.12725E-3,0
AURA,2004-026A,2026-06-10T11:33:04.491072,14.61318955,.0001296,98.3415,117.8792,72.1881,287.9460,0,U,28376,999,16523,.14787E-3,.682E-5,0
IRS-P5 (CARTOSAT-1),2005-017A,2026-06-10T07:12:25.784352,14.91030884,.0002652,97.5308,184.6772,89.2884,270.8638,0,U,28649,999,14279,.11833473E-3,.1118E-4,0
SINAH 1,2005-043D,2026-06-10T11:50:45.712896,14.64153181,.0013252,98.2851,295.7765,299.7951,60.1933,0,U,28893,999,9954,.59119E-4,.262E-5,0
RESURS-DK 1,2006-021A,2026-06-09T23:05:38.023296,15.13185061,.00065763,69.9339,358.2552,297.4803,62.5694,0,U,29228,999,10148,.12796544E-3,.2168E-4,0
ARIRANG-2 (KOMPSAT-2),2006-031A,2026-06-10T12:48:55.216224,14.64655792,.0015902,97.8313,346.3028,93.7610,350.7889,0,U,29268,999,6050,.49868E-4,.221E-5,0
LAPAN-TUBSAT,2007-001A,2026-06-10T12:29:33.778176,14.85942627,.0011347,98.1347,160.5945,201.7397,158.3337,0,U,29709,999,5016,-.97368E-6,-.66E-6,0
HAIYANG-1B,2007-010A,2026-06-10T12:03:26.017344,14.31025222,.0012627,98.3491,143.6069,217.0922,142.9390,0,U,31113,999,99967,.46123E-4,.8E-6,0
COSMO-SKYMED 1,2007-023A,2026-06-10T12:26:00.414240,14.97068431,.0001017,97.8852,353.3188,85.1944,274.9394,0,U,31598,999,2879,.17639E-3,.1973E-4,0
TERRASAR-X,2007-026A,2026-06-09T06:54:02.843424,15.19149435,.00016846,97.4448,168.1064,80.8129,279.3296,0,U,31698,999,5202,.23832718E-4,.433E-5,0
WORLDVIEW-1 (WV-1),2007-041A,2026-06-10T07:59:55.551840,15.24191122,.0002879,97.3863,281.1764,40.3528,319.7922,0,U,32060,999,4183,.23281E-3,.5601E-4,0
YAOGAN-3,2007-055A,2026-06-10T06:44:40.796736,14.90752928,.00017964,97.8159,191.2271,86.2739,273.8685,0,U,32289,999,484,.17439006E-3,.1658E-4,0
COSMO-SKYMED 2,2007-059A,2026-06-10T06:35:56.586336,14.82149148,.00014,97.8885,344.9734,85.6888,274.4485,0,U,32376,999,98,.49472761E-4,.342E-5,0
RADARSAT-2,2007-061A,2026-06-10T07:41:40.576992,14.29983962,.00013207,98.5783,168.3514,84.3431,275.7902,0,U,32382,999,96497,.70534812E-4,.138E-5,0
CARTOSAT-2A,2008-021A,2026-06-10T11:38:29.675616,14.79228431,.0012852,97.7638,210.4226,128.5459,231.6907,0,U,32783,999,97781,.93899E-4,.648E-5,0
HUANJING 1A (HJ-1A),2008-041A,2026-06-10T13:24:04.380192,14.83969771,.0019305,97.6682,147.6533,155.5951,204.6182,0,U,33320,999,95742,.68359E-4,.519E-5,0
HUANJING 1B (HJ-1B),2008-041B,2026-06-10T12:35:13.159968,14.83305713,.0035431,97.6517,150.8126,203.2092,156.7524,0,U,33321,999,95742,.12771E-3,.1004E-4,0
GEOEYE 1,2008-042A,2026-06-10T10:58:24.482784,14.64719439,.0005554,98.1236,235.4736,85.6739,274.5099,0,U,33331,999,94916,.78738E-4,.372E-5,0
THEOS,2008-049A,2026-06-10T11:41:10.245696,14.20133370,.0001249,98.5574,218.9880,79.1227,281.0091,0,U,33396,999,91701,.14696E-3,.271E-5,0
COSMO-SKYMED 3,2008-054A,2026-06-10T13:39:57.021408,15.06906521,.0014376,97.8289,20.0306,291.7838,68.1859,0,U,33412,999,95594,.20946E-3,.3069E-4,0
YAOGAN-4,2008-061A,2026-06-10T06:51:37.472832,14.83186780,.0015774,97.9308,94.8472,92.8337,267.4682,0,U,33446,999,94464,.1079E-3,.828E-5,0
GOSAT (IBUKI),2009-002A,2026-06-10T06:02:49.422624,14.67540919,.0001583,98.0884,272.4203,88.8695,271.2691,0,U,33492,999,93044,.18298E-3,.99E-5,0
DEIMOS-1,2009-041A,2026-06-10T11:18:56.255616,14.75230988,.0001209,97.7398,318.9909,138.1687,221.9616,0,U,35681,999,90589,.10115E-3,.636E-5,0
