SCD 1                   
1 22490U 93009B   26161.53313588  .00000358  00000+0  47133-4 0  9997
2 22490  24.9686 248.6632 0042165  67.7017 319.2318 14.46116538760156
TECHSAT 1B (GO-32)      
1 25397U 98043D   26160.96984413  .00000058  00000+0  45251-4 0  9992
2 25397  99.0065 153.5465 0000643 181.5466 178.5710 14.24427022450309
SCD 2                   
1 25504U 98060A   26161.18787752  .00000371  00000+0  52842-4 0  9995
2 25504  24.9942 115.3218 0016909  49.9238 346.0190 14.45523077459312
DLR-TUBSAT              
1 25757U 99029B   26161.26662519  .00000083  00000+0  32175-4 0  9990
2 25757  98.6694 156.5430 0014494  16.0558 344.1093 14.52425074432244
TERRA                   
1 25994U 99068A   26161.44238609  .00000313  00000+0  72614-4 0  9993
2 25994  97.9459 211.2558 0001080 219.0291 197.8052 14.61097651408623
MAROC-TUBSAT            
1 27004U 01056D   26161.50483426 -.00000015  00000+0  36108-4 0  9991
2 27004  99.8079 338.2386 0020123 158.0441 269.4240 13.70262181225277
AQUA                    
1 27424U 02022A   26161.49364199  .00000657  00000+0  14045-3 0  9990
2 27424  98.4274 130.6429 0001374  53.4071  55.1749 14.62147849282295
SHIYAN-1 (SY-1)         
1 28220U 04012A   26161.46344655  .00012725  00000+0  39410-3 0  9990
2 28220  97.8692 239.0956 0006153  54.6080 305.5735 15.33589617210064
AURA                    
1 28376U 04026A   26161.48130198  .00000682  00000+0  14787-3 0  9993
2 28376  98.3415 117.8792 0001296  72.1881 287.9460 14.61318955165234
IRS-P5 (CARTOSAT-1)     
1 28649U 05017A   26161.30029843  .00001118  00000+0  11833-3 0  9996
2 28649  97.5308 184.6772 0002652  89.2884 270.8638 14.91030884142797
SINAH 1                 
1 28893U 05043D   26161.49358464  .00000262  00000+0  59119-4 0  9999
2 28893  98.2851 295.7765 0013252 299.7951  60.1933 14.64153181 99544
RESURS-DK 1             
1 29228U 06021A   26160.96224564  .00002168  00000+0  12797-3 0  9990
2 29228  69.9339 358.2552 0006576 297.4803  62.5694 15.13185061101488
ARIRANG-2 (KOMPSAT-2)   
1 29268U 06031A   26161.53397241  .00000221  00000+0  49868-4 0  9990
2 29268  97.8313 346.3028 0015902  93.7610 350.7889 14.64655792 60509
LAPAN-TUBSAT            
1 29709U 07001A   26161.52052984 -.00000066  00000+0 -97368-6 0  9998
2 29709  98.1347 160.5945 0011347 201.7397 158.3337 14.85942627 50166
HAIYANG-1B              
1 31113U 07010A   26161.50238446  .00000080  00000+0  46123-4 0  9992
2 31113  98.3491 143.6069 0012627 217.0922 142.9390 14.31025222999675
COSMO-SKYMED 1          
1 31598U 07023A   26161.51806035  .00001973  00000+0  17639-3 0  9990
2 31598  97.8852 353.3188 0001017  85.1944 274.9394 14.97068431 28795
TERRASAR-X              
1 31698U 07026A   26160.28753291  .00000433  00000+0  23833-4 0  9996
2 31698  97.4448 168.1064 0001684  80.8129 279.3296 15.19149435 52027
WORLDVIEW-1 (WV-1)      
1 32060U 07041A   26161.33328185  .00005601  00000+0  23281-3 0  9992
2 32060  97.3863 281.1764 0002879  40.3528 319.7922 15.24191122 41833
YAOGAN-3                
1 32289U 07055A   26161.28102774  .00001658  00000+0  17439-3 0  9994
2 32289  97.8159 191.2271 0001796  86.2739 273.8685 14.90752928  4848
COSMO-SKYMED 2          
1 32376U 07059A   26161.27496049  .00000342  00000+0  49473-4 0  9998
2 32376  97.8885 344.9734 0001400  85.6888 274.4485 14.82149148   983
RADARSAT-2              
1 32382U 07061A   26161.32060853  .00000138  00000+0  70535-4 0  9990
2 32382  98.5783 168.3514 0001320  84.3431 275.7902 14.29983962964977
CARTOSAT-2A             
1 32783U 08021A   26161.48506569  .00000648  00000+0  93899-4 0  9992
2 32783  97.7638 210.4226 0012852 128.5459 231.6907 14.79228431977815
HUANJING 1A (HJ-1A)     
1 33320U 08041A   26161.55838403  .00000519  00000+0  68359-4 0  9995
2 33320  97.6682 147.6533 0019305 155.5951 204.6182 14.83969771957424
HUANJING 1B (HJ-1B)     
1 33321U 08041B   26161.52445787  .00001004  00000+0  12771-3 0  9998
2 33321  97.6517 150.8126 0035431 203.2092 156.7524 14.83305713957428
GEOEYE 1                
1 33331U 08042A   26161.45722781  .00000372  00000+0  78738-4 0  9997
2 33331  98.1236 235.4736 0005554  85.6739 274.5099 14.64719439949164
THEOS                   
1 33396U 08049A   26161.48692414  .00000271  00000+0  14696-3 0  9997
2 33396  98.5574 218.9880 0001249  79.1227 281.0091 14.20133370917017
COSMO-SKYMED 3          
1 33412U 08054A   26161.56940997  .00003069  00000+0  20946-3 0  9996
2 33412  97.8289  20.0306 0014376 291.7838  68.1859 15.06906521955942
YAOGAN-4                
1 33446U 08061A   26161.28585038  .00000828  00000+0  10790-3 0  9997
2 33446  97.9308  94.8472 0015774  92.8337 267.4682 14.83186780944646
GOSAT (IBUKI)           
1 33492U 09002A   26161.25196091  .00000990  00000+0  18298-3 0  9999
2 33492  98.0884 272.4203 0001583  88.8695 271.2691 14.67540919930445
DEIMOS-1                
1 35681U 09041A   26161.47148444  .00000636  00000+0  10115-3 0  9994
2 35681  97.7398 318.9909 0001209 138.1687 221.9616 14.75230988905898
